IRIDIUM 57 [-]          
1 25273U 98019B   24104.65467693  .00000417  00000+0  13920-3 0  9992
2 25273  86.3954 325.1704 0002170  88.1680 271.9765 14.35146741363161
IRIDIUM 63 [-]          
1 25286U 98021B   24104.84227176  .00000659  00000+0  22177-3 0  9992
2 25286  86.3945 261.9625 0001958  96.8975 263.2444 14.35675135362228
IRIDIUM 69 [-]          
1 25319U 98026A   24105.02986875  .00000783  00000+0  24310-3 0  9992
2 25319  86.3925 276.4760 0003010  41.9182 318.2247 14.39879890361528
IRIDIUM 71 [-]          
1 25320U 98026B   24104.90506272  .00000773  00000+0  23848-3 0  9993
2 25320  86.3928 271.2989 0004091  77.3228 282.8428 14.40204085361788
IRIDIUM 73 [-]          
1 25344U 98032C   24105.42064733  .00001039  00000+0  26090-3 0  9993
2 25344  86.4449 228.5934 0002172  78.6687 281.4762 14.50411567368687
IRIDIUM 82 [-]          
1 25467U 98051A   24105.02908791  .00014630  00000+0  76461-3 0  9995
2 25467  86.3762 316.1850 0134548  96.1120 265.5466 15.08133940358819
IRIDIUM 2 [-]           
1 25527U 98066A   24104.70848979  .00111089  00000+0  10869-2 0  9998
2 25527  85.5095 345.0152 0003615 133.6277 226.5290 15.65771824397763
